*******************************************************************************
Ephemeris / WWW_USER Mon Jul 15 19:35:15 2024 Pasadena, USA      / Horizons    
*******************************************************************************
Target body name: (2015 BP519)                    {source: JPL#11}
Center body name: Earth (399)                     {source: DE441}
Center-site name: Gemini South Obs., Cerro Pachon
*******************************************************************************
Start time      : A.D. 2018-Oct-27 23:10:00.0000 UT      
Stop  time      : A.D. 2018-Oct-28 09:43:00.0000 UT      
Step-size       : 1 minutes
*******************************************************************************
Target pole/equ : undefined
Target radii    : undefined                                                    
Center geodetic : 289.2634, -30.2406227, 2.71233  {E-lon(deg),Lat(deg),Alt(km)}
Center cylindric: 289.2634,5517.21435,-3194.81213 {E-lon(deg),Dxy(km),Dz(km)}
Center pole/equ : ITRF93                          {East-longitude positive}
Center radii    : 6378.137, 6378.137, 6356.752 km {Equator_a, b, pole_c}       
Target primary  : Sun
Vis. interferer : MOON (R_eq= 1737.400) km        {source: DE441}
Rel. light bend : Sun                             {source: DE441}
Rel. lght bnd GM: 1.3271E+11 km^3/s^2                                          
Small-body perts: Yes                             {source: SB441-N16}
Atmos refraction: NO (AIRLESS)
RA format       : HMS
Time format     : CAL 
Calendar mode   : Mixed Julian/Gregorian
RTS-only print  : NO       
EOP file        : eop.240715.p241008                                           
EOP coverage    : DATA-BASED 1962-JAN-20 TO 2024-JUL-15. PREDICTS-> 2024-OCT-07
Units conversion: 1 au= 149597870.700 km, c= 299792.458 km/s, 1 day= 86400.0 s 
Table cut-offs 1: Elevation (-90.0deg=NO ),Airmass (>38.000=NO), Daylight (YES)
Table cut-offs 2: Solar elongation (  0.0,180.0=NO ),Local Hour Angle( 0.0=NO )
Table cut-offs 3: RA/DEC angular rate (     0.0=NO )                           
*******************************************************************************
Initial IAU76/J2000 heliocentric ecliptic osculating elements (au, days, deg.):
  EPOCH=  2459185.5 ! 2020-Dec-02.00 (TDB)         Residual RMS= .076636       
   EC= .9196800569382362   QR= 35.27062259520413   TP= 2473034.2681888649      
   OM= 135.0361763364557   W=  348.1354702472351   IN= 54.13300168900849       
  Equivalent ICRF heliocentric cartesian coordinates (au, au/d):
   X= 1.527332710437156E+01  Y= 4.057000090505051E+01  Z=-2.695001507835700E+01
  VX=-2.654302427537234E-03 VY= 4.512065776218028E-05 VZ= 1.968031006040699E-03
Asteroid physical parameters (km, seconds, rotational period in hours):        
   GM= n.a.                RAD= n.a.               ROTPER= n.a.                
   H= 4.34                 G= .150                 B-V= n.a.                   
                           ALBEDO= n.a.            STYP= n.a.                  
*******************************************************************************
 Date__(UT)__HR:MN     R.A._________(ICRF)_________DEC
******************************************************
$$SOE
 2018-Oct-28 05:19  m  04 30 26.538443 -33 31 43.89077
 2018-Oct-28 05:20  m  04 30 26.535808 -33 31 43.91322
 2018-Oct-28 05:21  m  04 30 26.533173 -33 31 43.93568
 2018-Oct-28 05:22  m  04 30 26.530537 -33 31 43.95813
 2018-Oct-28 05:23  m  04 30 26.527901 -33 31 43.98059
 2018-Oct-28 05:24  m  04 30 26.525266 -33 31 44.00304
 2018-Oct-28 05:25  m  04 30 26.522630 -33 31 44.02549
 2018-Oct-28 05:26  m  04 30 26.519994 -33 31 44.04794
 2018-Oct-28 05:27  m  04 30 26.517358 -33 31 44.07038
 2018-Oct-28 05:28  m  04 30 26.514721 -33 31 44.09283
 2018-Oct-28 05:29  m  04 30 26.512085 -33 31 44.11527
 2018-Oct-28 05:30  m  04 30 26.509449 -33 31 44.13771
 2018-Oct-28 05:31  m  04 30 26.506812 -33 31 44.16015
 2018-Oct-28 05:32  m  04 30 26.504176 -33 31 44.18258
 2018-Oct-28 05:33  m  04 30 26.501539 -33 31 44.20502
 2018-Oct-28 05:34  m  04 30 26.498902 -33 31 44.22745
 2018-Oct-28 05:35  m  04 30 26.496265 -33 31 44.24988
 2018-Oct-28 05:36  m  04 30 26.493628 -33 31 44.27231
 2018-Oct-28 05:37  m  04 30 26.490991 -33 31 44.29474
 2018-Oct-28 05:38  m  04 30 26.488354 -33 31 44.31716
 2018-Oct-28 05:39  m  04 30 26.485717 -33 31 44.33959
 2018-Oct-28 05:40  m  04 30 26.483079 -33 31 44.36201
 2018-Oct-28 05:41  m  04 30 26.480442 -33 31 44.38443
 2018-Oct-28 05:42  m  04 30 26.477804 -33 31 44.40685
 2018-Oct-28 05:43  m  04 30 26.475167 -33 31 44.42927
 2018-Oct-28 05:44  m  04 30 26.472529 -33 31 44.45168
 2018-Oct-28 05:45  m  04 30 26.469891 -33 31 44.47409
 2018-Oct-28 05:46  m  04 30 26.467253 -33 31 44.49650
 2018-Oct-28 05:47  m  04 30 26.464615 -33 31 44.51891
 2018-Oct-28 05:48  m  04 30 26.461977 -33 31 44.54132
 2018-Oct-28 05:49  m  04 30 26.459339 -33 31 44.56373
 2018-Oct-28 05:50  m  04 30 26.456701 -33 31 44.58613
 2018-Oct-28 05:51  m  04 30 26.454062 -33 31 44.60853
 2018-Oct-28 05:52  m  04 30 26.451424 -33 31 44.63093
 2018-Oct-28 05:53  m  04 30 26.448785 -33 31 44.65333
 2018-Oct-28 05:54  m  04 30 26.446147 -33 31 44.67573
 2018-Oct-28 05:55  m  04 30 26.443508 -33 31 44.69812
 2018-Oct-28 05:56  m  04 30 26.440869 -33 31 44.72051
 2018-Oct-28 05:57  m  04 30 26.438231 -33 31 44.74290
 2018-Oct-28 05:58  m  04 30 26.435592 -33 31 44.76529
 2018-Oct-28 05:59  m  04 30 26.432953 -33 31 44.78768
 2018-Oct-28 06:00  m  04 30 26.430314 -33 31 44.81006
 2018-Oct-28 06:01  m  04 30 26.427675 -33 31 44.83245
 2018-Oct-28 06:02  m  04 30 26.425035 -33 31 44.85483
 2018-Oct-28 06:03  m  04 30 26.422396 -33 31 44.87721
 2018-Oct-28 06:04  m  04 30 26.419757 -33 31 44.89958
 2018-Oct-28 06:05  m  04 30 26.417117 -33 31 44.92196
 2018-Oct-28 06:06  m  04 30 26.414478 -33 31 44.94433
 2018-Oct-28 06:07  m  04 30 26.411838 -33 31 44.96671
 2018-Oct-28 06:08  m  04 30 26.409199 -33 31 44.98907
 2018-Oct-28 06:09  m  04 30 26.406559 -33 31 45.01144
 2018-Oct-28 06:10  m  04 30 26.403919 -33 31 45.03381
 2018-Oct-28 06:11  m  04 30 26.401280 -33 31 45.05617
 2018-Oct-28 06:12  m  04 30 26.398640 -33 31 45.07854
 2018-Oct-28 06:13  m  04 30 26.396000 -33 31 45.10090
 2018-Oct-28 06:14  m  04 30 26.393360 -33 31 45.12326
 2018-Oct-28 06:15  m  04 30 26.390720 -33 31 45.14561
 2018-Oct-28 06:16  m  04 30 26.388080 -33 31 45.16797
 2018-Oct-28 06:17  m  04 30 26.385439 -33 31 45.19032
 2018-Oct-28 06:18  m  04 30 26.382799 -33 31 45.21267
 2018-Oct-28 06:19  m  04 30 26.380159 -33 31 45.23502
 2018-Oct-28 06:20  m  04 30 26.377519 -33 31 45.25737
 2018-Oct-28 06:21  m  04 30 26.374878 -33 31 45.27971
 2018-Oct-28 06:22  m  04 30 26.372238 -33 31 45.30206
 2018-Oct-28 06:23  m  04 30 26.369597 -33 31 45.32440
 2018-Oct-28 06:24  m  04 30 26.366957 -33 31 45.34674
 2018-Oct-28 06:25  m  04 30 26.364316 -33 31 45.36908
 2018-Oct-28 06:26  m  04 30 26.361675 -33 31 45.39141
 2018-Oct-28 06:27  m  04 30 26.359035 -33 31 45.41375
 2018-Oct-28 06:28  m  04 30 26.356394 -33 31 45.43608
 2018-Oct-28 06:29  m  04 30 26.353753 -33 31 45.45841
 2018-Oct-28 06:30  m  04 30 26.351112 -33 31 45.48074
 2018-Oct-28 06:31  m  04 30 26.348472 -33 31 45.50306
 2018-Oct-28 06:32  m  04 30 26.345831 -33 31 45.52539
 2018-Oct-28 06:33  m  04 30 26.343190 -33 31 45.54771
 2018-Oct-28 06:34  m  04 30 26.340549 -33 31 45.57003
 2018-Oct-28 06:35  m  04 30 26.337908 -33 31 45.59235
 2018-Oct-28 06:36  m  04 30 26.335267 -33 31 45.61467
 2018-Oct-28 06:37  m  04 30 26.332625 -33 31 45.63698
 2018-Oct-28 06:38  m  04 30 26.329984 -33 31 45.65929
 2018-Oct-28 06:39  m  04 30 26.327343 -33 31 45.68161
 2018-Oct-28 06:40  m  04 30 26.324702 -33 31 45.70391
 2018-Oct-28 06:41  m  04 30 26.322061 -33 31 45.72622
 2018-Oct-28 06:42  m  04 30 26.319419 -33 31 45.74853
 2018-Oct-28 06:43  m  04 30 26.316778 -33 31 45.77083
 2018-Oct-28 06:44  m  04 30 26.314137 -33 31 45.79313
 2018-Oct-28 06:45  m  04 30 26.311495 -33 31 45.81543
 2018-Oct-28 06:46  m  04 30 26.308854 -33 31 45.83773
 2018-Oct-28 06:47  m  04 30 26.306212 -33 31 45.86003
 2018-Oct-28 06:48  t  04 30 26.303571 -33 31 45.88232
 2018-Oct-28 06:49  m  04 30 26.300929 -33 31 45.90461
 2018-Oct-28 06:50  m  04 30 26.298288 -33 31 45.92690
 2018-Oct-28 06:51  m  04 30 26.295646 -33 31 45.94919
 2018-Oct-28 06:52  m  04 30 26.293005 -33 31 45.97148
 2018-Oct-28 06:53  m  04 30 26.290363 -33 31 45.99376
 2018-Oct-28 06:54  m  04 30 26.287721 -33 31 46.01604
 2018-Oct-28 06:55  m  04 30 26.285080 -33 31 46.03832
 2018-Oct-28 06:56  m  04 30 26.282438 -33 31 46.06060
 2018-Oct-28 06:57  m  04 30 26.279796 -33 31 46.08288
 2018-Oct-28 06:58  m  04 30 26.277155 -33 31 46.10516
 2018-Oct-28 06:59  m  04 30 26.274513 -33 31 46.12743
 2018-Oct-28 07:00  m  04 30 26.271871 -33 31 46.14970
 2018-Oct-28 07:01  m  04 30 26.269229 -33 31 46.17197
 2018-Oct-28 07:02  m  04 30 26.266588 -33 31 46.19424
 2018-Oct-28 07:03  m  04 30 26.263946 -33 31 46.21650
 2018-Oct-28 07:04  m  04 30 26.261304 -33 31 46.23877
 2018-Oct-28 07:05  m  04 30 26.258662 -33 31 46.26103
 2018-Oct-28 07:06  m  04 30 26.256020 -33 31 46.28329
 2018-Oct-28 07:07  m  04 30 26.253379 -33 31 46.30554
 2018-Oct-28 07:08  m  04 30 26.250737 -33 31 46.32780
 2018-Oct-28 07:09  m  04 30 26.248095 -33 31 46.35005
 2018-Oct-28 07:10  m  04 30 26.245453 -33 31 46.37231
 2018-Oct-28 07:11  m  04 30 26.242811 -33 31 46.39456
 2018-Oct-28 07:12  m  04 30 26.240169 -33 31 46.41681
 2018-Oct-28 07:13  m  04 30 26.237528 -33 31 46.43905
 2018-Oct-28 07:14  m  04 30 26.234886 -33 31 46.46130
 2018-Oct-28 07:15  m  04 30 26.232244 -33 31 46.48354
 2018-Oct-28 07:16  m  04 30 26.229602 -33 31 46.50578
 2018-Oct-28 07:17  m  04 30 26.226960 -33 31 46.52802
 2018-Oct-28 07:18  m  04 30 26.224318 -33 31 46.55026
 2018-Oct-28 07:19  m  04 30 26.221676 -33 31 46.57249
 2018-Oct-28 07:20  m  04 30 26.219035 -33 31 46.59472
 2018-Oct-28 07:21  m  04 30 26.216393 -33 31 46.61696
